{
    "links": {
        "self": "http://www.neowsapp.com/rest/v1/neo/3781713?api_key=iIulBulltgU6a56xZRHN4H3l9WmuAYTsLGpBGhQ2"
    },
    "id": "3781713",
    "neo_reference_id": "3781713",
    "name": "(2017 RP17)",
    "designation": "2017 RP17",
    "nasa_jpl_url": "http://ssd.jpl.nasa.gov/sbdb.cgi?sstr=3781713",
    "absolute_magnitude_h": 23.5,
    "estimated_diameter": {
        "kilometers": {
            "estimated_diameter_min": 0.0530340723,
            "estimated_diameter_max": 0.1185877909
        },
        "meters": {
            "estimated_diameter_min": 53.0340723319,
            "estimated_diameter_max": 118.5877908577
        },
        "miles": {
            "estimated_diameter_min": 0.0329538346,
            "estimated_diameter_max": 0.0736870142
        },
        "feet": {
            "estimated_diameter_min": 173.9963058693,
            "estimated_diameter_max": 389.0675677576
        }
    },
    "is_potentially_hazardous_asteroid": false,
    "close_approach_data": [
        {
            "close_approach_date": "2017-09-27",
            "close_approach_date_full": "2017-Sep-27 14:09",
            "epoch_date_close_approach": 1506521340000,
            "relative_velocity": {
                "kilometers_per_second": "7.2691773034",
                "kilometers_per_hour": "26169.0382923303",
                "miles_per_hour": "16260.4227100316"
            },
            "miss_distance": {
                "astronomical": "0.2856121991",
                "lunar": "111.1031454499",
                "kilometers": "42726976.631375917",
                "miles": "26549312.1707729746"
            },
            "orbiting_body": "Earth"
        }
    ],
    "orbital_data": {
        "orbit_id": "1",
        "orbit_determination_date": "2017-09-25 13:42:06",
        "first_observation_date": "2017-09-15",
        "last_observation_date": "2017-09-23",
        "data_arc_in_days": 8,
        "observations_used": 12,
        "orbit_uncertainty": "8",
        "minimum_orbit_intersection": ".281997",
        "jupiter_tisserand_invariant": "4.432",
        "epoch_osculation": "2458012.5",
        "eccentricity": ".1647535353657308",
        "semi_major_axis": "1.533223516280868",
        "inclination": "14.21358729163464",
        "ascending_node_longitude": "356.4362132662113",
        "orbital_period": "693.4363992254639",
        "perihelion_distance": "1.280619521467718",
        "perihelion_argument": "16.32169292996561",
        "aphelion_distance": "1.785827511094018",
        "perihelion_time": "2458032.751758299568",
        "mean_anomaly": "349.4862268609093",
        "mean_motion": ".5191535956319905",
        "equinox": "J2000",
        "orbit_class": {
            "orbit_class_type": "AMO",
            "orbit_class_description": "Near-Earth asteroid orbits similar to that of 1221 Amor",
            "orbit_class_range": "1.017 AU < q (perihelion) < 1.3 AU"
        }
    },
    "is_sentry_object": false
}